{
    "links": {
        "self": "http://www.neowsapp.com/rest/v1/neo/3670148?api_key=iIulBulltgU6a56xZRHN4H3l9WmuAYTsLGpBGhQ2"
    },
    "id": "3670148",
    "neo_reference_id": "3670148",
    "name": "(2014 HE184)",
    "designation": "2014 HE184",
    "nasa_jpl_url": "http://ssd.jpl.nasa.gov/sbdb.cgi?sstr=3670148",
    "absolute_magnitude_h": 23.9,
    "estimated_diameter": {
        "kilometers": {
            "estimated_diameter_min": 0.04411182,
            "estimated_diameter_max": 0.0986370281
        },
        "meters": {
            "estimated_diameter_min": 44.1118199997,
            "estimated_diameter_max": 98.6370281305
        },
        "miles": {
            "estimated_diameter_min": 0.0274098057,
            "estimated_diameter_max": 0.0612901888
        },
        "feet": {
            "estimated_diameter_min": 144.7238235278,
            "estimated_diameter_max": 323.6123073718
        }
    },
    "is_potentially_hazardous_asteroid": false,
    "close_approach_data": [
        {
            "close_approach_date": "2014-04-14",
            "close_approach_date_full": "2014-Apr-14 20:11",
            "epoch_date_close_approach": 1397506260000,
            "relative_velocity": {
                "kilometers_per_second": "7.971989625",
                "kilometers_per_hour": "28699.1626498501",
                "miles_per_hour": "17832.5435920694"
            },
            "miss_distance": {
                "astronomical": "0.3199078452",
                "lunar": "124.4441517828",
                "kilometers": "47857532.238209724",
                "miles": "29737291.5962892312"
            },
            "orbiting_body": "Earth"
        }
    ],
    "orbital_data": {
        "orbit_id": "9",
        "orbit_determination_date": "2017-04-06 08:41:13",
        "first_observation_date": "2014-04-28",
        "last_observation_date": "2014-05-02",
        "data_arc_in_days": 4,
        "observations_used": 15,
        "orbit_uncertainty": "9",
        "minimum_orbit_intersection": ".271315",
        "jupiter_tisserand_invariant": "4.191",
        "epoch_osculation": "2456777.5",
        "eccentricity": ".3172139567917767",
        "semi_major_axis": "1.643447401887723",
        "inclination": "16.0102271740926",
        "ascending_node_longitude": "229.8285192122854",
        "orbital_period": "769.5416684743814",
        "perihelion_distance": "1.122122948755753",
        "perihelion_argument": "279.67238895",
        "aphelion_distance": "2.164771855019692",
        "perihelion_time": "2456692.545166126319",
        "mean_anomaly": "39.7427994447104",
        "mean_motion": ".4678109253183146",
        "equinox": "J2000",
        "orbit_class": {
            "orbit_class_type": "AMO",
            "orbit_class_description": "Near-Earth asteroid orbits similar to that of 1221 Amor",
            "orbit_class_range": "1.017 AU < q (perihelion) < 1.3 AU"
        }
    },
    "is_sentry_object": false
}